ONEWEB-0707             
1 61612U 24188U   25227.55975944  .00000489  00000+0  13633-2 0  9993
2 61612  87.8774  97.1943 0001104  80.7047 279.4205 13.10374114 43296
ONEWEB-0708             
1 61613U 24188V   25227.34894560 -.00000377  00000+0 -11163-2 0  9999
2 61613  87.8805  97.2710 0001181 103.8014 256.3245 13.10370724 43247
